ION SCV-017             
1 63230U 25052W   26068.71648816  .00006457  00000+0  24539-3 0  9998
2 63230  97.4016 324.7516 0023746  44.9875 315.3282 15.26881798 54851
STARLINK-36154          
1 66939U 25286Q   26068.08053053  .00048966  00000+0  16559-2 0  9992
2 66939  53.1618   1.2703 0001295  54.3015 305.8106 15.30172711 15329
